[{"OBJECT_NAME":"MERCURY ONE (M1)","OBJECT_ID":"2025-276CE","EPOCH":"2026-03-09T17:44:34.856448","MEAN_MOTION":15.18699342,"ECCENTRICITY":0.0001642,"INCLINATION":97.4266,"RA_OF_ASC_NODE":144.005,"ARG_OF_PERICENTER":0.6072,"MEAN_ANOMALY":359.5164,"EPHEMERIS_TYPE":0,"CLASSIFICATION_TYPE":"U","NORAD_CAT_ID":66742,"ELEMENT_SET_NO":999,"REV_AT_EPOCH":1532,"BSTAR":0.00030142011,"MEAN_MOTION_DOT":6.187e-5,"MEAN_MOTION_DDOT":0},{"OBJECT_NAME":"NUSAT-47","OBJECT_ID":"2025-276CF","EPOCH":"2026-03-09T17:45:49.486176","MEAN_MOTION":15.1906801,"ECCENTRICITY":0.00020185,"INCLINATION":97.4263,"RA_OF_ASC_NODE":144.0024,"ARG_OF_PERICENTER":39.1504,"MEAN_ANOMALY":320.9877,"EPHEMERIS_TYPE":0,"CLASSIFICATION_TYPE":"U","NORAD_CAT_ID":66743,"ELEMENT_SET_NO":999,"REV_AT_EPOCH":1532,"BSTAR":0.00039116013,"MEAN_MOTION_DOT":8.137e-5,"MEAN_MOTION_DDOT":0}]
